[{"OBJECT_NAME":"IRIDIUM 107","OBJECT_ID":"2017-061F","EPOCH":"2026-03-09T22:26:14.574624","MEAN_MOTION":14.34217551,"ECCENTRICITY":0.00017516,"INCLINATION":86.3913,"RA_OF_ASC_NODE":66.7602,"ARG_OF_PERICENTER":87.4442,"MEAN_ANOMALY":272.6954,"EPHEMERIS_TYPE":0,"CLASSIFICATION_TYPE":"U","NORAD_CAT_ID":42960,"ELEMENT_SET_NO":999,"REV_AT_EPOCH":44059,"BSTAR":-3.536384e-6,"MEAN_MOTION_DOT":1.0e-7,"MEAN_MOTION_DDOT":0},{"OBJECT_NAME":"FENGYUN 1C DEB","OBJECT_ID":"1999-025AFE","EPOCH":"2026-03-09T20:48:50.791392","MEAN_MOTION":14.38132425,"ECCENTRICITY":0.00278182,"INCLINATION":98.8535,"RA_OF_ASC_NODE":23.5047,"ARG_OF_PERICENTER":76.0232,"MEAN_ANOMALY":284.4044,"EPHEMERIS_TYPE":0,"CLASSIFICATION_TYPE":"U","NORAD_CAT_ID":30443,"ELEMENT_SET_NO":999,"REV_AT_EPOCH":98685,"BSTAR":0.0025082384,"MEAN_MOTION_DOT":7.602e-5,"MEAN_MOTION_DDOT":0}]
